[{"OBJECT_NAME":"JILIN-1 GAOFEN 3J","OBJECT_ID":"2020-065J","EPOCH":"2026-03-09T22:30:27.627264","MEAN_MOTION":15.75586121,"ECCENTRICITY":0.00041731,"INCLINATION":97.2394,"RA_OF_ASC_NODE":125.824,"ARG_OF_PERICENTER":135.626,"MEAN_ANOMALY":224.5341,"EPHEMERIS_TYPE":0,"CLASSIFICATION_TYPE":"U","NORAD_CAT_ID":46462,"ELEMENT_SET_NO":999,"REV_AT_EPOCH":30471,"BSTAR":0.0010197143,"MEAN_MOTION_DOT":0.00157536,"MEAN_MOTION_DDOT":0},{"OBJECT_NAME":"STARLINK-11500 [DTC]","OBJECT_ID":"2024-254L","EPOCH":"2026-03-09T11:51:43.122240","MEAN_MOTION":15.70810671,"ECCENTRICITY":0.00049498,"INCLINATION":42.9997,"RA_OF_ASC_NODE":223.8747,"ARG_OF_PERICENTER":300.2067,"MEAN_ANOMALY":59.831,"EPHEMERIS_TYPE":0,"CLASSIFICATION_TYPE":"U","NORAD_CAT_ID":62472,"ELEMENT_SET_NO":999,"REV_AT_EPOCH":6884,"BSTAR":0.0018364755,"MEAN_MOTION_DOT":0.00241978,"MEAN_MOTION_DDOT":0}]
